STARLINK-31459          
1 59233U 24049C   26068.21608523 -.00002737  00000+0 -89985-4 0  9993
2 59233  43.0004 146.2142 0000795 294.7089  65.3680 15.27579059112322
AL MUNTHER              
1 63240U 25052AG  26068.64540749  .00017933  00000+0  65015-3 0  9992
2 63240  97.4001 323.9152 0008027 130.7043 229.4895 15.28381521 54798
